{"type":"FeatureCollection","features":[{"type":"Feature","properties":{},"geometry":{"type":"Polygon","coordinates":[[[100.0,0.0],[180.0,0.0],[180.0,66.0],[100.0,66.0],[100.0,0.0]],[[153.835,24.9833],[154.1514,24.9674],[154.3799,24.8717],[154.5908,24.6802],[154.6787,24.5204],[154.7139,24.3924],[154.6963,24.1038],[154.5908,23.8951],[154.3975,23.7182],[154.2217,23.6377],[154.0811,23.6054],[153.7822,23.6216],[153.5537,23.7182],[153.3252,23.9272],[153.2373,24.0878],[153.2021,24.2161],[153.2197,24.4884],[153.3252,24.6962],[153.5186,24.8717],[153.6943,24.9515],[153.835,24.9833]],[[141.1787,26.1252],[141.4775,26.1094],[141.7061,26.0147],[141.8994,25.8407],[142.0049,25.6507],[142.04,25.5239],[142.04,25.3334],[141.9873,25.1426],[142.0928,24.9515],[142.0928,24.6003],[142.1455,24.5364],[142.2158,24.3283],[142.1982,24.0557],[142.0928,23.8468],[141.9697,23.7182],[141.7939,23.6054],[141.5654,23.541],[141.3545,23.541],[141.2139,23.5732],[141.0381,23.6538],[140.915,23.7503],[140.7568,23.9915],[140.7217,24.1199],[140.7217,24.2963],[140.6162,24.4244],[140.5459,24.6323],[140.5459,24.8558],[140.6338,25.0789],[140.5283,25.3334],[140.5283,25.5398],[140.5635,25.6666],[140.6514,25.8249],[140.7744,25.9514],[140.9502,26.062],[141.1787,26.1252]],[[122.8975,26.141],[123.1611,26.4247],[123.3369,26.5348],[123.4775,26.582],[123.7764,26.5977],[123.917,26.5663],[124.0928,26.4876],[124.2861,26.3144],[124.374,26.1568],[124.4092,26.0305],[124.4092,25.8249],[124.2686,25.4446],[124.1104,25.2539],[124.4268,25.2539],[124.5322,25.2221],[124.6553,25.3493],[124.8311,25.4604],[125.1475,25.5556],[125.3584,25.5556],[125.6221,25.4763],[125.9912,25.2221],[126.1494,24.9833],[126.1846,24.8558],[126.1846,24.6483],[126.1494,24.5204],[126.0615,24.3603],[125.8682,24.1841],[125.5693,24.0717],[125.1475,24.0557],[124.9365,24.1199],[124.7783,23.8951],[124.5498,23.7342],[124.374,23.6699],[124.1631,23.6538],[123.9697,23.5893],[123.4951,23.6216],[123.3545,23.6699],[123.1963,23.7825],[122.8271,23.7664],[122.6865,23.7986],[122.5107,23.879],[122.4229,23.9433],[122.3877,24.1199],[122.3877,24.3924],[122.4404,24.6802],[122.7568,25.1267],[123.2314,25.1426],[123.0908,25.2062],[122.9678,25.3016],[122.8447,25.4604],[122.792,25.5873],[122.7744,25.8566],[122.8096,25.9831],[122.8975,26.141]],[[131.1768,26.6134],[131.5107,26.5977],[131.7393,26.5034],[131.9502,26.3144],[132.0381,26.1568],[132.0732,26.0305],[132.0557,25.7616],[131.8975,25.4763],[131.6689,25.2698],[131.4932,25.1903],[131.3525,25.1585],[131.0186,25.1744],[130.79,25.2698],[130.5967,25.4446],[130.5088,25.6032],[130.4736,25.7299],[130.4912,26.0147],[130.667,26.3302],[130.8604,26.5034],[131.0361,26.582],[131.1768,26.6134]],[[140.3525,27.7238],[140.5283,27.8327],[140.7568,27.8949],[141.0732,27.8793],[141.3193,27.7705],[141.4072,28.0191],[141.5303,28.1742],[141.7412,28.3135],[141.8818,28.36],[142.2158,28.3754],[142.3564,28.3445],[142.5322,28.2671],[142.6553,28.1742],[142.8135,27.988],[142.9014,27.8327],[142.9365,27.7083],[142.9365,27.5058],[142.9014,27.3653],[142.9717,27.1778],[142.9717,26.9587],[142.9189,26.8176],[142.9365,26.5506],[142.8662,26.3459],[142.7959,26.2356],[142.6025,26.062],[142.4268,25.9831],[142.2861,25.9514],[141.9873,25.9673],[141.7588,26.062],[141.5479,26.2514],[141.4072,26.5034],[141.3545,26.7391],[141.1963,26.6292],[140.9678,26.5663],[140.6689,26.582],[140.4404,26.6763],[140.2471,26.8489],[140.1592,27.0057],[140.124,27.1309],[140.124,27.3341],[140.1592,27.459],[140.2471,27.6148],[140.3525,27.7238]],[[156.4893,51.0215],[156.542,50.9772],[156.5947,50.8109],[157.1221,50.4877],[157.0693,50.4205],[156.9111,50.2859],[156.6826,50.1847],[156.5068,49.9817],[156.2959,49.8345],[156.1201,49.7551],[156.0498,49.7437],[155.8213,49.5958],[155.6279,49.5274],[155.5752,49.4017],[155.5576,49.2298],[155.4873,49.0919],[155.3643,48.9766],[155.2939,48.942],[155.2764,48.8958],[155.1533,48.7801],[154.8721,48.6409],[154.8193,48.5711],[154.6084,48.3963],[154.4854,48.3263],[154.2568,48.2561],[153.9932,48.2327],[154.0283,48.1506],[154.0107,47.9155],[153.9053,47.7621],[153.7998,47.6794],[153.7822,47.5964],[153.7119,47.4778],[153.5361,47.3231],[153.2549,47.2038],[153.1318,47.0123],[153.0264,46.9284],[152.9033,46.8683],[152.7627,46.7118],[152.4639,46.4823],[152.2178,46.3369],[151.9893,46.264],[151.6904,46.2519],[151.5498,46.2762],[151.3916,46.0936],[151.2334,46.0082],[151.1104,45.8737],[150.8291,45.6776],[150.7412,45.5792],[150.0557,45.1841],[149.7217,45.0725],[149.458,45.0601],[149.335,44.9482],[149.1592,44.861],[148.9482,44.7987],[148.79,44.7862],[148.6494,44.7488],[148.333,44.5236],[148.0869,44.4484],[147.8936,44.3353],[147.7354,44.1969],[147.5771,44.1212],[147.6826,43.9189],[147.665,43.7033],[147.542,43.5123],[147.3311,43.3592],[146.9971,43.2184],[146.8213,43.18],[146.7158,43.0902],[146.4873,42.9745],[146.2764,42.9359],[146.1533,42.8715],[146.0479,42.7684],[145.8721,42.678],[145.5908,42.6263],[145.3447,42.4968],[144.8525,42.38],[144.3604,42.393],[144.167,42.276],[144.0791,42.1719],[144.0615,41.9892],[143.9209,41.688],[143.7979,41.5566],[143.6572,41.4645],[143.4814,41.3986],[143.3408,41.3722],[143.042,41.3854],[142.8135,41.4645],[142.6025,41.6223],[142.3916,41.6749],[142.0049,41.8454],[141.9697,41.8323],[142.1279,41.6749],[142.1982,41.504],[142.1982,41.293],[142.1279,41.121],[142.1455,40.8955],[142.3389,40.7359],[142.5498,40.4288],[142.585,40.2949],[142.6904,40.1203],[142.7432,39.7969],[142.8135,39.6347],[142.8135,39.472],[142.7607,39.2682],[142.6729,39.1183],[142.585,38.845],[142.4795,38.6942],[142.2861,38.5432],[142.2861,38.2124],[142.2158,38.0326],[142.04,37.8385],[141.7588,37.6996],[141.7764,37.2671],[141.6885,36.8181],[141.583,36.635],[141.4072,36.4796],[141.3545,36.3665],[141.3545,36.2248],[141.5479,35.9976],[141.6182,35.8124],[141.6182,35.6269],[141.5479,35.4409],[141.3721,35.2402],[141.126,35.1109],[141.0557,34.9237],[140.8799,34.7217],[140.6514,34.577],[140.5283,34.5481],[140.4404,34.4612],[140.2471,34.3451],[140.2998,34.2435],[140.3174,34.0835],[140.3701,33.9523],[140.3701,33.7772],[140.2998,33.6016],[140.4932,33.4404],[140.5811,33.2936],[140.6162,33.176],[140.5986,32.9255],[140.458,32.6891],[140.5107,32.5262],[140.4932,32.2739],[140.4404,32.1549],[140.335,32.0358],[140.5459,31.9165],[140.7217,31.7223],[140.792,31.5277],[140.792,31.3477],[140.7217,31.1523],[140.6514,31.062],[140.8271,30.9565],[140.9326,30.851],[141.0205,30.6999],[141.0557,30.5789],[141.0381,30.3061],[140.9854,30.1846],[140.8623,30.0326],[140.7393,29.9412],[140.5635,29.865],[140.4229,29.8345],[140.1943,29.8345],[140.0537,29.865],[139.8779,29.9412],[139.6846,30.1086],[139.5791,30.3061],[139.5615,30.5789],[139.6318,30.7755],[139.7021,30.8811],[139.5439,30.9716],[139.4209,31.0921],[139.333,31.2425],[139.2979,31.3627],[139.3154,31.6175],[139.3682,31.7372],[139.4736,31.8568],[139.21,32.0209],[139.0869,32.1698],[139.0342,32.2887],[139.0166,32.5558],[139.0869,32.7483],[139.1221,32.7778],[139.0342,32.9107],[138.999,33.0729],[138.7529,33.2201],[138.6299,33.3671],[138.5771,33.4844],[138.5596,33.7333],[138.6299,33.9232],[138.665,33.9523],[138.6123,34.0106],[138.542,34.0398],[138.3311,33.9815],[138.1201,33.9815],[137.9268,34.0398],[137.5752,34.0398],[137.5049,33.9232],[137.3115,33.7626],[137.083,33.6602],[136.9072,33.6309],[136.6787,33.4404],[136.626,33.3083],[136.5029,33.1613],[136.2744,32.9698],[136.0986,32.8665],[135.8701,32.8074],[135.5713,32.8222],[135.4307,32.8665],[135.29,32.955],[135.1143,32.9992],[134.9209,33.1171],[134.7979,32.8812],[134.6924,32.7778],[134.5166,32.6743],[134.2881,32.6151],[134.0771,32.6151],[133.8486,32.6743],[133.7783,32.7187],[133.7256,32.5114],[133.6377,32.363],[133.5322,32.259],[133.3564,32.1549],[133.1279,32.0953],[132.7764,32.1102],[132.6709,32.0805],[132.4424,32.0805],[132.3369,32.1102],[132.2842,32.0507],[132.2314,31.9165],[132.2314,31.7073],[132.1611,31.4077],[132.0908,31.3026],[132.0029,31.0771],[131.8799,30.9264],[131.8096,30.8811],[131.8271,30.6848],[131.7744,30.4275],[131.7041,30.2909],[131.6865,30.1846],[131.5811,30.0021],[131.4756,29.8955],[131.2998,29.7888],[131.0186,29.7124],[130.8252,29.6208],[130.6318,29.5902],[130.5439,29.4526],[130.3682,29.2994],[130.1748,29.023],[130.3682,28.9615],[130.5439,28.8538],[130.7021,28.6689],[130.7549,28.5454],[130.7549,28.1742],[130.6846,28.0191],[130.5615,27.8638],[130.3154,27.6927],[130.0869,27.6304],[129.8936,27.6304],[129.7002,27.4902],[129.6826,27.4278],[129.5596,27.2716],[129.3311,27.1153],[129.1904,26.943],[129.1553,26.8019],[129.0674,26.6606],[129.0498,26.5506],[128.9268,26.3302],[128.751,26.141],[128.5928,26.0305],[128.3467,25.6824],[128.0479,25.4763],[127.8193,25.4128],[127.4502,25.4287],[127.292,25.4922],[127.0107,25.5556],[126.8877,25.6349],[126.6943,25.6349],[126.5537,25.6666],[126.3779,25.7458],[126.1846,25.8724],[126.0264,26.062],[125.9561,26.2672],[125.9736,26.5348],[126.0264,26.6606],[126.1494,26.8176],[126.3955,26.99],[126.6768,27.0527],[126.8877,27.1935],[127.0283,27.2404],[127.2568,27.2716],[127.3623,27.459],[127.5381,27.6148],[127.4854,27.7549],[127.5029,28.0346],[127.6084,28.2361],[127.7139,28.3445],[127.8896,28.4527],[128.0303,28.4991],[128.4521,28.4991],[128.5225,28.6226],[128.6455,28.746],[128.9268,28.9154],[129.085,28.9769],[128.9268,29.1613],[128.874,29.284],[128.874,29.5902],[128.7861,29.804],[128.8037,30.0782],[128.8564,30.1998],[128.9795,30.3365],[128.8916,30.3971],[128.7686,30.5487],[128.6982,30.7453],[128.6982,30.9415],[128.7686,31.1373],[128.8916,31.2876],[128.9971,31.3627],[128.9092,31.5726],[128.9092,31.7522],[128.9795,31.9463],[128.54,31.9612],[128.3994,31.991],[128.2236,32.0656],[128.083,32.1549],[127.9775,32.259],[127.8896,32.4076],[127.8545,32.5262],[127.8721,32.7778],[127.9775,33.0435],[128.1533,33.2348],[128.3291,33.3377],[128.3994,33.5431],[128.5752,33.7333],[128.4697,33.9086],[128.4521,34.0252],[128.6104,34.2435],[128.9443,34.5191],[129.0498,34.765],[129.3838,34.9525],[129.5771,35.0245],[129.7529,35.0677],[130.0342,35.0965],[130.1396,34.9813],[130.1924,34.8804],[130.2451,34.6494],[130.3857,34.8227],[130.5264,34.9237],[130.79,35.0245],[131.0186,35.0389],[131.1768,35.1684],[131.4404,35.2545],[131.5635,35.3693],[131.8623,35.5697],[132.0029,35.7697],[132.2314,35.9549],[132.2314,36.2248],[132.2842,36.3381],[132.4072,36.4796],[132.8115,36.804],[133.0928,36.9166],[133.4795,36.9166],[133.6553,36.8603],[133.8311,36.7618],[134.042,36.5361],[134.1123,36.3523],[134.1299,36.1822],[134.4287,36.2673],[134.6748,36.2531],[135.0967,36.3665],[135.3604,36.3523],[135.4482,36.522],[135.5713,36.6632],[135.8877,36.8463],[135.9756,36.9447],[135.9404,37.057],[135.9404,37.2811],[135.9932,37.4767],[136.0986,37.6578],[136.2568,37.7969],[136.5029,37.9356],[136.7139,37.9772],[136.7842,38.0188],[137.1885,38.1157],[137.4697,38.1018],[137.5576,38.309],[137.6982,38.5019],[137.9268,38.7217],[138.0498,38.8039],[138.2256,38.8724],[138.3662,38.8997],[138.6299,38.8997],[138.876,38.8313],[138.9814,38.9818],[139.0869,39.0774],[139.1572,39.2273],[139.1572,39.3226],[139.21,39.472],[139.0342,39.6617],[138.9814,39.7699],[138.9639,40.0934],[139.0342,40.268],[139.1572,40.3887],[139.1221,40.509],[139.1221,40.6826],[139.2451,40.9354],[139.0166,40.9885],[138.8408,41.0813],[138.6826,41.2401],[138.6123,41.3722],[138.5947,41.6092],[138.665,41.7798],[138.7354,41.8584],[138.665,42.0806],[138.665,42.237],[138.7705,42.4579],[138.9287,42.6133],[139.1045,42.7038],[139.1572,42.8458],[139.2451,42.9616],[139.3682,43.0645],[139.5967,43.18],[139.6143,43.423],[139.6846,43.5633],[139.8076,43.6906],[140.0361,43.8175],[140.2119,43.8809],[140.3525,43.9063],[140.6162,43.8936],[140.7568,44.0833],[140.915,44.2095],[140.9326,44.4233],[141.0205,44.5863],[140.7568,44.6863],[140.5986,44.7862],[140.3525,45.0477],[140.2646,45.2336],[140.2295,45.5423],[140.2998,45.7021],[140.4229,45.8248],[140.5459,45.8982],[140.7217,45.9594],[140.8623,45.9838],[141.0908,45.9838],[141.1787,45.9716],[141.3721,45.837],[141.6885,45.7512],[142.3916,45.6407],[142.7607,45.653],[143.165,45.3079],[143.3057,45.1221],[143.6396,44.8735],[143.7803,44.8237],[143.9912,44.6863],[144.4307,44.6363],[144.6064,44.5737],[144.6416,44.5737],[144.8174,44.7363],[145.0811,44.8486],[145.2217,44.8735],[145.5557,44.861],[145.7842,44.9855],[146.0127,45.0352],[146.2939,45.0352],[146.3994,45.0104],[146.5576,45.1841],[146.6807,45.2584],[146.8037,45.2955],[146.9971,45.4684],[147.1904,45.5669],[147.2607,45.6776],[147.5244,45.8615],[147.7002,45.9227],[147.8408,45.9471],[148.0518,45.9471],[148.21,45.9227],[148.3857,45.996],[148.6143,46.0448],[148.9482,46.0326],[149.124,46.2032],[149.3174,46.3005],[149.5107,46.446],[149.8799,46.6395],[150.126,46.6998],[150.2314,46.8082],[150.3896,46.9044],[150.5654,46.9644],[150.7061,46.9884],[150.9873,46.9764],[151.04,47.0722],[151.1631,47.1918],[151.4971,47.3588],[151.7432,47.5727],[151.7432,47.5964],[151.8662,47.7149],[152.0068,47.7976],[152.2178,47.8566],[152.2705,47.892],[152.3232,47.9979],[152.4287,48.092],[152.4287,48.1858],[152.499,48.3379],[152.6221,48.4547],[152.833,48.5595],[153.0264,48.606],[153.2549,48.6293],[153.2373,48.7453],[153.167,48.8727],[153.167,49.0227],[153.2373,49.1724],[153.3779,49.3101],[153.501,49.3788],[153.7998,49.4589],[153.7119,49.5502],[153.6416,49.6982],[153.6416,49.8572],[153.7119,50.0043],[153.835,50.1171],[153.9932,50.2072],[154.2217,50.2747],[154.4502,50.2971],[154.4678,50.3981],[154.5381,50.51],[154.6611,50.6217],[154.7842,50.6886],[154.7139,50.8109],[154.7139,50.9662],[154.8018,51.1319],[154.96,51.2641],[155.1357,51.341],[155.3467,51.385],[155.7334,51.385],[155.8389,51.3191],[156.0498,51.1319],[156.3486,51.0878],[156.4893,51.0215]]]}}]}